{
  "type": "FeatureCollection",
  "features": [
    {
      "type": "Feature",
      "properties": {
        "norad_id": 34022,
        "name": "COSMOS 2251 DEB",
        "group": "cosmos-2251-debris",
        "lat": 23.437162357402997,
        "lon": 78.67231751376629,
        "alt_km": 777.28042489792,
        "timestamp": "2025-12-15T10:55:21.538127+00:00",
        "meta_object_name": "COSMOS 2251 DEB",
        "meta_object_id": "1993-036HH",
        "meta_epoch": "2025-12-14T21:09:15.287616",
        "meta_mean_motion": 14.38966684,
        "meta_eccentricity": 0.00228017,
        "meta_inclination": 74.0542,
        "meta_ra_of_asc_node": 266.8487,
        "meta_arg_of_pericenter": 331.4647,
        "meta_mean_anomaly": 93.3803,
        "meta_ephemeris_type": 0,
        "meta_classification_type": "U",
        "meta_norad_cat_id": 34022,
        "meta_element_set_no": 999,
        "meta_rev_at_epoch": 88226,
        "meta_bstar": 0.00024904499,
        "meta_mean_motion_dot": 7.44e-06,
        "meta_mean_motion_ddot": 0,
        "tle_line1": "1 34022U 93036HH  25348.88142694  .00000744  00000+0  24904-3 0  9992",
        "tle_line2": "2 34022  74.0542 266.8487 0022801 331.4647  93.3803 14.38966684882264"
      },
      "geometry": {
        "type": "Point",
        "coordinates": [
          78.67231751376629,
          23.437162357402997
        ]
      }
    },
    {
      "type": "Feature",
      "properties": {
        "norad_id": 34023,
        "name": "COSMOS 2251 DEB",
        "group": "cosmos-2251-debris",
        "lat": 73.99876518345759,
        "lon": -20.64337925422262,
        "alt_km": 753.4476475668034,
        "timestamp": "2025-12-15T10:55:21.538138+00:00",
        "meta_object_name": "COSMOS 2251 DEB",
        "meta_object_id": "1993-036HJ",
        "meta_epoch": "2025-12-14T19:49:21.298944",
        "meta_mean_motion": 14.40566288,
        "meta_eccentricity": 0.00185466,
        "meta_inclination": 74.0247,
        "meta_ra_of_asc_node": 247.8825,
        "meta_arg_of_pericenter": 343.222,
        "meta_mean_anomaly": 85.7203,
        "meta_ephemeris_type": 0,
        "meta_classification_type": "U",
        "meta_norad_cat_id": 34023,
        "meta_element_set_no": 999,
        "meta_rev_at_epoch": 88244,
        "meta_bstar": 0.00038284419,
        "meta_mean_motion_dot": 1.196e-05,
        "meta_mean_motion_ddot": 0,
        "tle_line1": "1 34023U 93036HJ  25348.82594096  .00001196  00000+0  38284-3 0  9992",
        "tle_line2": "2 34023  74.0247 247.8825 0018546 343.2220  85.7203 14.40566288882449"
      },
      "geometry": {
        "type": "Point",
        "coordinates": [
          -20.64337925422262,
          73.99876518345759
        ]
      }
    },
    {
      "type": "Feature",
      "properties": {
        "norad_id": 34024,
        "name": "COSMOS 2251 DEB",
        "group": "cosmos-2251-debris",
        "lat": 47.10155096813611,
        "lon": -31.053894299489684,
        "alt_km": 759.2100970156635,
        "timestamp": "2025-12-15T10:55:21.538147+00:00",
        "meta_object_name": "COSMOS 2251 DEB",
        "meta_object_id": "1993-036HK",
        "meta_epoch": "2025-12-14T21:24:49.932576",
        "meta_mean_motion": 14.35398819,
        "meta_eccentricity": 0.0021131,
        "meta_inclination": 74.0465,
        "meta_ra_of_asc_node": 312.0479,
        "meta_arg_of_pericenter": 2.2569,
        "meta_mean_anomaly": 19.8628,
        "meta_ephemeris_type": 0,
        "meta_classification_type": "U",
        "meta_norad_cat_id": 34024,
        "meta_element_set_no": 999,
        "meta_rev_at_epoch": 88055,
        "meta_bstar": 0.00021240296,
        "meta_mean_motion_dot": 5.85e-06,
        "meta_mean_motion_ddot": 0,
        "tle_line1": "1 34024U 93036HK  25348.89224459  .00000585  00000+0  21240-3 0  9998",
        "tle_line2": "2 34024  74.0465 312.0479 0021131   2.2569  19.8628 14.35398819880550"
      },
      "geometry": {
        "type": "Point",
        "coordinates": [
          -31.053894299489684,
          47.10155096813611
        ]
      }
    },
    {
      "type": "Feature",
      "properties": {
        "norad_id": 34026,
        "name": "COSMOS 2251 DEB",
        "group": "cosmos-2251-debris",
        "lat": -24.342470090151387,
        "lon": -34.802859672073694,
        "alt_km": 1190.874069565638,
        "timestamp": "2025-12-15T10:55:21.538158+00:00",
        "meta_object_name": "COSMOS 2251 DEB",
        "meta_object_id": "1993-036HM",
        "meta_epoch": "2025-12-14T09:26:09.164832",
        "meta_mean_motion": 13.65311952,
        "meta_eccentricity": 0.0350446,
        "meta_inclination": 73.7669,
        "meta_ra_of_asc_node": 334.5359,
        "meta_arg_of_pericenter": 204.305,
        "meta_mean_anomaly": 309.6659,
        "meta_ephemeris_type": 0,
        "meta_classification_type": "U",
        "meta_norad_cat_id": 34026,
        "meta_element_set_no": 999,
        "meta_rev_at_epoch": 83554,
        "meta_bstar": 0.0008138152,
        "meta_mean_motion_dot": 9.83e-06,
        "meta_mean_motion_ddot": 0,
        "tle_line1": "1 34026U 93036HM  25348.39316163  .00000983  00000+0  81382-3 0  9994",
        "tle_line2": "2 34026  73.7669 334.5359 0350446 204.3050 309.6659 13.65311952835542"
      },
      "geometry": {
        "type": "Point",
        "coordinates": [
          -34.802859672073694,
          -24.342470090151387
        ]
      }
    },
    {
      "type": "Feature",
      "properties": {
        "norad_id": 34028,
        "name": "COSMOS 2251 DEB",
        "group": "cosmos-2251-debris",
        "lat": -73.37991184796338,
        "lon": -92.51259966071326,
        "alt_km": 1552.924882072547,
        "timestamp": "2025-12-15T10:55:21.538168+00:00",
        "meta_object_name": "COSMOS 2251 DEB",
        "meta_object_id": "1993-036HP",
        "meta_epoch": "2025-12-14T18:06:15.829632",
        "meta_mean_motion": 13.20624343,
        "meta_eccentricity": 0.0543637,
        "meta_inclination": 73.8834,
        "meta_ra_of_asc_node": 344.1615,
        "meta_arg_of_pericenter": 121.6641,
        "meta_mean_anomaly": 59.1526,
        "meta_ephemeris_type": 0,
        "meta_classification_type": "U",
        "meta_norad_cat_id": 34028,
        "meta_element_set_no": 999,
        "meta_rev_at_epoch": 81034,
        "meta_bstar": 0.00031742376,
        "meta_mean_motion_dot": 2.64e-06,
        "meta_mean_motion_ddot": 0,
        "tle_line1": "1 34028U 93036HP  25348.75434988  .00000264  00000+0  31742-3 0  9999",
        "tle_line2": "2 34028  73.8834 344.1615 0543637 121.6641  59.1526 13.20624343810347"
      },
      "geometry": {
        "type": "Point",
        "coordinates": [
          -92.51259966071326,
          -73.37991184796338
        ]
      }
    },
    {
      "type": "Feature",
      "properties": {
        "norad_id": 34031,
        "name": "COSMOS 2251 DEB",
        "group": "cosmos-2251-debris",
        "lat": 61.65586628801669,
        "lon": -81.58331773901266,
        "alt_km": 699.5655243500023,
        "timestamp": "2025-12-15T10:55:21.538179+00:00",
        "meta_object_name": "COSMOS 2251 DEB",
        "meta_object_id": "1993-036HS",
        "meta_epoch": "2025-12-14T13:36:37.304352",
        "meta_mean_motion": 14.59714184,
        "meta_eccentricity": 0.00230015,
        "meta_inclination": 74.0124,
        "meta_ra_of_asc_node": 132.2176,
        "meta_arg_of_pericenter": 252.4518,
        "meta_mean_anomaly": 236.8209,
        "meta_ephemeris_type": 0,
        "meta_classification_type": "U",
        "meta_norad_cat_id": 34031,
        "meta_element_set_no": 999,
        "meta_rev_at_epoch": 88592,
        "meta_bstar": 0.0011879891,
        "meta_mean_motion_dot": 5.661e-05,
        "meta_mean_motion_ddot": 0,
        "tle_line1": "1 34031U 93036HS  25348.56709843  .00005661  00000+0  11880-2 0  9993",
        "tle_line2": "2 34031  74.0124 132.2176 0023001 252.4518 236.8209 14.59714184885922"
      },
      "geometry": {
        "type": "Point",
        "coordinates": [
          -81.58331773901266,
          61.65586628801669
        ]
      }
    },
    {
      "type": "Feature",
      "properties": {
        "norad_id": 34035,
        "name": "COSMOS 2251 DEB",
        "group": "cosmos-2251-debris",
        "lat": -20.237283426489693,
        "lon": 170.0800491498405,
        "alt_km": 749.6744827060666,
        "timestamp": "2025-12-15T10:55:21.538189+00:00",
        "meta_object_name": "COSMOS 2251 DEB",
        "meta_object_id": "1993-036HW",
        "meta_epoch": "2025-12-14T09:44:31.043040",
        "meta_mean_motion": 14.51970881,
        "meta_eccentricity": 0.00448206,
        "meta_inclination": 74.0658,
        "meta_ra_of_asc_node": 346.0063,
        "meta_arg_of_pericenter": 347.1333,
        "meta_mean_anomaly": 132.1099,
        "meta_ephemeris_type": 0,
        "meta_classification_type": "U",
        "meta_norad_cat_id": 34035,
        "meta_element_set_no": 999,
        "meta_rev_at_epoch": 87990,
        "meta_bstar": 0.0019119331,
        "meta_mean_motion_dot": 7.801e-05,
        "meta_mean_motion_ddot": 0,
        "tle_line1": "1 34035U 93036HW  25348.40591485  .00007801  00000+0  19119-2 0  9992",
        "tle_line2": "2 34035  74.0658 346.0063 0044820 347.1333 132.1099 14.51970881879903"
      },
      "geometry": {
        "type": "Point",
        "coordinates": [
          170.0800491498405,
          -20.237283426489693
        ]
      }
    }
  ]
}